NORAD_CAT_ID,OBJECT_NAME,OBJECT_TYPE,EPOCH,MEAN_MOTION,ECCENTRICITY,INCLINATION,RA_OF_ASC_NODE,ARG_OF_PERICENTER,MEAN_ANOMALY,BSTAR,MEAN_MOTION_DOT,MEAN_MOTION_DDOT,TLE_LINE0,TLE_LINE1,TLE_LINE2,SEMIMAJOR_AXIS,PERIOD,APOGEE,PERIGEE,DECAYED
52678.0,STARLINK-4074,PAYLOAD,2024-08-20 05:24:40,15.08845735,0.0001578,53.2181,167.1834,90.1561,269.9612,4.9135e-05,4.94e-06,0.0,0 STARLINK-4074,1 52678U 22053Y   24233.22546441  .00000494  00000-0  49135-4 0  9995,2 52678  53.2181 167.1834 0001578  90.1561 269.9612 15.08845735125226,6917.863,95.437,540.819,538.636,0.0
52678.0,STARLINK-4074,PAYLOAD,2024-08-21 06:50:49,15.08854379,0.000127,53.2166,162.4273,89.2403,270.8734,0.00015236,2.139e-05,0.0,0 STARLINK-4074,1 52678U 22053Y   24234.28529675  .00002139  00000-0  15236-3 0  9994,2 52678  53.2166 162.4273 0001270  89.2403 270.8734 15.08854379125384,6917.836,95.437,540.58,538.823,0.0
52678.0,STARLINK-4074,PAYLOAD,2024-08-21 14:47:46,15.08830169,0.0001295,53.2166,160.9393,107.6325,252.4809,-1.9162e-06,-3.18e-06,0.0,0 STARLINK-4074,1 52678U 22053Y   24234.61651250 -.00000318  00000-0 -19162-5 0  9999,2 52678  53.2166 160.9393 0001295 107.6325 252.4809 15.08830169125868,6917.91,95.438,540.671,538.88,0.0
52678.0,STARLINK-4074,PAYLOAD,2024-08-21 17:58:33,15.08830269,0.0001359,53.2169,160.3452,102.3325,257.7819,4.5256e-05,4.32e-06,0.0,0 STARLINK-4074,1 52678U 22053Y   24234.74899580  .00000432  00000-0  45256-4 0  9990,2 52678  53.2169 160.3452 0001359 102.3325 257.7819 15.08830269125459,6917.91,95.438,540.715,538.835,0.0
52678.0,STARLINK-4074,PAYLOAD,2024-08-21 22:44:42,15.0883561,0.0001366,53.2162,159.4537,99.5136,260.601,7.4605e-05,8.99e-06,0.0,0 STARLINK-4074,1 52678U 22053Y   24234.94771205  .00000899  00000-0  74605-4 0  9992,2 52678  53.2162 159.4537 0001366  99.5136 260.6010 15.08835610125912,6917.894,95.438,540.704,538.814,0.0
